ONEWEB-0113             
1 48050U 21025J   22132.61106391 -.00000255  00000+0 -73364-3 0  9993
2 48050  87.8994 257.5167 0001831  96.9183 263.2155 13.13470698 57127
ONEWEB-0112             
1 48051U 21025K   22132.59988695  .00014925  00000+0  40814-1 0  9995
2 48051  87.9026 257.3790 0001859  81.9342 278.1998 13.13395348 57135
ONEWEB-0156             
1 48052U 21025L   22132.83738016 -.00000266  00000+0 -76292-3 0  9999
2 48052  87.9001 257.4473 0001857 102.0199 258.1139 13.13471860 57141
ONEWEB-0161             
1 48053U 21025M   22132.58195238  .00000109  00000+0  26334-3 0  9991
2 48053  87.8934 257.4414 0001674 102.2490 257.8826 13.13471567 57046
ONEWEB-0158             
1 48054U 21025N   22132.77462488 -.00000080  00000+0 -25298-3 0  9995
2 48054  87.8992 257.4772 0001944  91.9388 268.1964 13.13472489 57196
ONEWEB-0157             
1 48055U 21025P   22132.64467941  .00000389  00000+0  10298-2 0  9994
2 48055  87.8969 257.4677 0001837 112.5910 247.5414 13.13471272 57119
ONEWEB-0162             
1 48056U 21025Q   22132.75895592  .00001011  00000+0  27326-2 0  9997
2 48056  87.9031 257.3607 0001964 104.0444 256.0903 13.13463593 57106
ONEWEB-0155             
1 48057U 21025R   22132.78135906  .00000184  00000+0  46809-3 0  9995
2 48057  87.8949 257.4144 0001669  98.9299 261.2020 13.13471506 57248
ONEWEB-0149             
1 48058U 21025S   22132.57298288  .00000320  00000+0  83998-3 0  9998
2 48058  87.8990 257.4806 0002382 107.9440 252.1949 13.13470847 57024
ONEWEB-0148             
1 48059U 21025T   22132.76565908 -.00000236  00000+0 -67989-3 0  9996
2 48059  87.8958 257.4143 0002449 120.6586 239.4785 13.13471494 57171
ONEWEB-0160             
1 48060U 21025U   22132.63124994  .00000137  00000+0  34075-3 0  9998
2 48060  87.8940 257.4372 0002521  69.2392 290.9007 13.13470786 57107
ONEWEB-0163             
1 48061U 21025V   22132.61555099 -.00000206  00000+0 -59932-3 0  9999
2 48061  87.9006 257.5376 0001668 121.1565 238.9727 13.13470039 57223
ONEWEB-0159             
1 48062U 21025W   22132.60435596 -.00000367  00000+0 -10401-2 0  9993
2 48062  87.8987 257.4297 0001881 118.8033 241.3285 13.13471971 57146
ONEWEB-0164             
1 48063U 21025X   22132.58642218 -.00000012  00000+0 -66830-4 0  9998
2 48063  87.9016 257.5572 0001508  94.2483 265.8818 13.13467215 57127
ONEWEB-0167             
1 48064U 21025Y   22132.77013647 -.00000157  00000+0 -46593-3 0  9991
2 48064  87.8970 257.4417 0001851 114.1593 245.9729 13.13472533 57138
ONEWEB-0166             
1 48065U 21025Z   22132.63795604 -.00004974  00000+0 -13656-1 0  9990
2 48065  87.9020 257.3757 0001930  98.0512 262.0836 13.13497399 57193
ONEWEB-0151             
1 48066U 21025AA  22132.64020365  .00000371  00000+0  98092-3 0  9991
2 48066  87.8982 257.4801 0001449  91.1405 268.9890 13.13467964 57135
ONEWEB-0170             
1 48067U 21025AB  22132.64693297  .00000263  00000+0  68506-3 0  9999
2 48067  87.9014 257.5366 0001581  65.1108 295.0185 13.13468188 57090
ONEWEB-0168             
1 48068U 21025AC  22132.63346565  .00000259  00000+0  67437-3 0  9999
2 48068  87.8994 257.5075 0001692 105.4661 254.6655 13.13464620 57101
ONEWEB-0173             
1 48069U 21025AD  22132.77911096  .00000046  00000+0  91521-4 0  9998
2 48069  87.8995 257.4872 0001385 114.6282 245.4991 13.13471471 57368
ONEWEB-0171             
1 48070U 21025AE  22132.58419591 -.00003279  00000+0 -90158-2 0  9998
2 48070  87.9031 257.4040 0002241 101.8252 258.3128 13.13485936 57159
ONEWEB-0172             
1 48071U 21025AF  22132.79366479  .00000333  00000+0  87807-3 0  9992
2 48071  87.8972 257.5267 0001518 104.1322 255.9976 13.13473017 58078
ONEWEB-0174             
1 48072U 21025AG  22132.77688205  .00000034  00000+0  58816-4 0  9992
2 48072  87.8941 257.3968 0002561 117.9478 242.1911 13.13471584 57392
ONEWEB-0175             
1 48073U 21025AH  22132.57523461  .00000233  00000+0  60332-3 0  9999
2 48073  87.8899 257.4333 0001550  82.7650 277.3656 13.13470093 57020
ONEWEB-0177             
1 48074U 21025AJ  22132.81719467 -.00000069  00000+0 -22441-3 0  9998
2 48074  87.9006 257.4871 0001551 127.4028 232.7243 13.13470741 57247
ONEWEB-0178             
1 48075U 21025AK  22132.60549751 -.00000347  00000+0 -98417-3 0  9998
2 48075  87.8937 257.4192 0001708 111.5633 248.5679 13.13469755 57269
ONEWEB-0108             
1 48076U 21025AL  22132.79480068  .00000345  00000+0  90923-3 0  9994
2 48076  87.8978 257.4523 0002303  98.4666 261.6724 13.13469767 57219
ONEWEB-0169             
1 48077U 21025AM  22132.59761872 -.00000266  00000+0 -76344-3 0  9993
2 48077  87.9009 257.5446 0002107 103.6153 256.5210 13.13467602 55849
ONEWEB-0176             
1 48210U 21031A   22132.62644382  .00000148  00000+0  36481-3 0  9994
2 48210  87.9059 227.1742 0001811 109.4846 250.6479 13.14502509 51709
ONEWEB-0184             
1 48211U 21031B   22132.52493079 -.00000742  00000+0 -20370-2 0  9990
2 48211  87.9033 227.1287 0001122  60.9488 299.1754 13.14502288 51667
ONEWEB-0179             
1 48212U 21031C   22132.64547187  .00000155  00000+0  38271-3 0  9990
2 48212  87.9040 227.1013 0001812 113.8579 246.2741 13.14502364 51729
ONEWEB-0180             
1 48213U 21031D   22132.52706824 -.00000167  00000+0 -48432-3 0  9998
2 48213  87.9032 227.1261 0002007 111.0624 249.0720 13.14501438 51598
ONEWEB-0218             
1 48214U 21031E   22132.62430830 -.00004754  00000+0 -12861-1 0  9992
2 48214  87.9023 227.0757 0001442 124.4901 235.6365 13.14526442 51763
ONEWEB-0209             
1 48215U 21031F   22132.53764300 -.00000036  00000+0 -13061-3 0  9999
2 48215  87.9051 227.1439 0001851 108.7495 251.3836 13.14502622 51751
ONEWEB-0198             
1 48216U 21031G   22132.52283461 -.00000232  00000+0 -65925-3 0  9997
2 48216  87.9040 227.1718 0001281 116.7440 243.3821 13.14504664 51861
ONEWEB-0189             
1 48217U 21031H   22132.30715786 -.00000300  00000+0 -84489-3 0  9996
2 48217  87.9032 227.1544 0001327 117.7746 242.3519 13.14503150 51571
ONEWEB-0196             
1 48218U 21031J   22132.51438120 -.00000165  00000+0 -47884-3 0  9991
2 48218  87.9052 227.1306 0001757 101.2365 258.8963 13.14501968 51606
ONEWEB-0183             
1 48219U 21031K   22132.63914360  .00000210  00000+0  53318-3 0  9998
2 48219  87.9057 227.1196 0001982 108.0757 252.0589 13.14505039 51714
ONEWEB-0185             
1 48220U 21031L   22132.51649155 -.00000233  00000+0 -66299-3 0  9993
2 48220  87.9045 227.1373 0001978 111.6176 248.5165 13.14502232 51622
ONEWEB-0187             
1 48221U 21031M   22132.64335710  .00000133  00000+0  32397-3 0  9996
2 48221  87.9054 227.1231 0001988 110.2853 249.8490 13.14502061 51652
ONEWEB-0192             
1 48222U 21031N   22132.53975380  .00000021  00000+0  21865-4 0  9993
2 48222  87.9039 227.1069 0001645 101.3444 258.7871 13.14501340 51552
ONEWEB-0219             
1 48223U 21031P   22132.52071204 -.00000310  00000+0 -87106-3 0  9997
2 48223  87.9035 227.1024 0001888 108.3745 251.7590 13.14501071 51754
ONEWEB-0202             
1 48224U 21031Q   22132.65180754  .00000032  00000+0  51131-4 0  9992
2 48224  87.9057 227.1231 0000653 122.9694 237.1498 13.14501394 51756
ONEWEB-0204             
1 48225U 21031R   22132.63701729  .00000204  00000+0  51698-3 0  9990
2 48225  87.9073 227.1347 0002631  95.4986 264.6444 13.14501926 51644
ONEWEB-0205             
1 48226U 21031S   22132.66237757 -.00000159  00000+0 -46280-3 0  9991
2 48226  87.9053 227.1038 0001570 112.6480 247.4816 13.14501071 51667
ONEWEB-0206             
1 48227U 21031T   22132.63489174  .00000239  00000+0  61002-3 0  9997
2 48227  87.9025 227.0752 0002029 112.5000 247.6345 13.14505711 51615
ONEWEB-0182             
1 48228U 21031U   22132.62856358  .00000078  00000+0  17655-3 0  9995
2 48228  87.9070 227.1502 0001966 112.5671 247.5666 13.14501531 51827
ONEWEB-0186             
1 48229U 21031V   22132.64125288  .00000177  00000+0  44293-3 0  9997
2 48229  87.9041 227.0928 0001696 109.1155 251.0159 13.14500697 51779
ONEWEB-0181             
1 48230U 21031W   22132.61798454  .00000081  00000+0  18535-3 0  9991
2 48230  87.9056 227.1469 0001754 103.1418 256.9907 13.14500556 51622
ONEWEB-0188             
1 48231U 21031X   22132.65815835 -.00000081  00000+0 -25207-3 0  9995
2 48231  87.9061 227.1363 0001923 109.8445 250.2892 13.14501800 51536
ONEWEB-0220             
1 48232U 21031Y   22132.62009963  .00000139  00000+0  34058-3 0  9996
2 48232  87.9032 227.0812 0001777 118.2702 241.8607 13.14504215 51791
ONEWEB-0165             
1 48233U 21031Z   22132.64969576  .00000058  00000+0  12094-3 0  9990
2 48233  87.9055 227.1276 0001787 112.4290 247.7029 13.14500944 51755
ONEWEB-0199             
1 48234U 21031AA  22132.63279294  .00000067  00000+0  14532-3 0  9990
2 48234  87.9042 227.1186 0001775 109.3560 250.7762 13.14503387 51655
ONEWEB-0203             
1 48235U 21031AB  22132.62221958  .00000160  00000+0  39840-3 0  9997
2 48235  87.9061 227.0950 0001720  87.2963 272.8364 13.14502629 51668
ONEWEB-0197             
1 48236U 21031AC  22132.53341300 -.00000118  00000+0 -35376-3 0  9997
2 48236  87.9048 227.1375 0001824 104.5335 255.5997 13.14504175 51564
ONEWEB-0194             
1 48237U 21031AD  22132.65393177 -.00000033  00000+0 -12246-3 0  9997
2 48237  87.9043 227.1093 0001998  86.4621 273.6737 13.14503346 51758
ONEWEB-0193             
1 48238U 21031AE  22132.29024381 -.00000419  00000+0 -11654-2 0  9995
2 48238  87.9051 227.1844 0001673 100.4776 259.6542 13.14502807 51658
ONEWEB-0191             
1 48239U 21031AF  22132.52917989 -.00000218  00000+0 -62195-3 0  9991
2 48239  87.9037 227.1343 0001796  97.0273 263.1061 13.14503323 51544
ONEWEB-0195             
1 48240U 21031AG  22132.66026155 -.00000095  00000+0 -29033-3 0  9991
2 48240  87.9040 227.0953 0001374 115.1596 244.9676 13.14500992 51546
